OBJECT_NAME,OBJECT_ID,EPOCH,MEAN_MOTION,ECCENTRICITY,INCLINATION,RA_OF_ASC_NODE,ARG_OF_PERICENTER,MEAN_ANOMALY,EPHEMERIS_TYPE,CLASSIFICATION_TYPE,NORAD_CAT_ID,ELEMENT_SET_NO,REV_AT_EPOCH,BSTAR,MEAN_MOTION_DOT,MEAN_MOTION_DDOT
SATELIOT_3,2024-149CN,2026-05-15T04:54:27.274176,14.97906833,.00050966,97.6818,212.4151,182.0192,178.1010,0,U,60552,999,9514,.90879455E-4,.1012E-4,0
BRO-15,2024-149CP,2026-05-15T06:31:31.775520,14.96066488,.00078968,97.6803,211.2739,187.7461,172.3640,0,U,60553,999,9508,.40563996E-4,.399E-5,0
UM5-RIBAT,2024-149CQ,2026-05-15T04:57:03.468096,15.00877179,.00032851,97.6659,213.4513,113.9259,246.2309,0,U,60554,999,9524,.1260161E-3,.1544E-4,0
UM5-EOSAT,2024-149CR,2026-05-15T04:21:59.605632,15.01282297,.00069439,97.6656,214.3304,212.4450,147.6348,0,U,60555,999,9526,.13643512E-3,.1695E-4,0
LASARSAT,2024-247Q,2026-05-14T07:05:32.423424,15.44206327,.00048327,44.9738,92.3362,129.6361,230.4955,0,U,62391,999,7807,.47806398E-3,.22146E-3,0
CROCUBE,2024-247T,2026-05-15T05:39:58.133664,15.45837898,.00045886,44.9720,84.8957,139.6403,220.4828,0,U,62394,999,7824,.40063712E-3,.19569E-3,0
TEVEL2-4,2025-052D,2026-05-15T05:45:38.014848,15.33398693,.00019152,97.3946,31.6023,167.8837,192.2452,0,U,63213,999,6506,.29711054E-3,.9513E-4,0
TEVEL2-5,2025-052E,2026-05-15T04:36:07.291584,15.33241404,.00018896,97.3947,31.5110,166.6850,193.4442,0,U,63214,999,6505,.30761074E-3,.9804E-4,0
TEVEL2-6,2025-052F,2026-05-15T06:26:42.361440,15.33205128,.00019862,97.3948,31.5727,170.0043,190.1240,0,U,63215,999,6506,.30186966E-3,.9608E-4,0
TEVEL2-1,2025-052H,2026-05-15T05:18:44.683200,15.32713961,.0001389,97.3922,31.1876,186.2760,173.8465,0,U,63217,999,6504,.30415181E-3,.9533E-4,0
TEVEL2-3,2025-052J,2026-05-15T06:46:37.875648,15.32763186,.00013341,97.3927,31.2663,188.4149,171.7071,0,U,63218,999,6505,.30590077E-3,.9603E-4,0
TEVEL2-2,2025-052K,2026-05-15T05:19:25.255776,15.32719889,.00013678,97.3923,31.1899,187.7938,172.3283,0,U,63219,999,6504,.29859319E-3,.9359E-4,0
TEVEL2-9,2025-052AD,2026-05-15T05:21:15.739776,15.30839418,.00041126,97.3986,30.6351,252.3256,107.7536,0,U,63237,999,6498,.28805534E-3,.8511E-4,0
TEVEL2-7,2025-052AE,2026-05-15T06:11:29.780448,15.30571444,.00041694,97.3987,30.5993,252.6057,107.4728,0,U,63238,999,6498,.2957839E-3,.8669E-4,0
TEVEL2-8,2025-052AF,2026-05-15T04:48:42.678144,15.30552289,.00041464,97.3987,30.5199,253.9702,106.1082,0,U,63239,999,6497,.29029077E-3,.8501E-4,0
HADES-ICM,2025-052BN,2026-05-15T05:30:38.105280,15.98249306,.00098911,97.3754,39.5599,173.5382,186.6025,0,U,63492,999,6559,.18347231E-2,.842919E-2,.32853825E-3
FORESAIL-1 PRIME,2025-276DS,2026-05-15T04:20:24.975168,15.18379093,.00020118,97.4210,209.0621,179.9372,180.1863,0,U,66778,999,2539,.13189908E-3,.2644E-4,0
